id,operator_name,country,city,address
1,"Volkman, Russel and O'Connell",Brazil,Cajati,16345 Fair Oaks Junction
2,Nicolas Group,Canada,Pilot Butte,3825 Cambridge Point
3,Mosciski Inc,Philippines,Panacan,1821 Northview Drive
4,"Barton, Koch and Smitham",Colombia,Santa Rosa de Cabal,1 Spaight Point
5,Mueller-Stanton,China,Jiepai,6006 Packers Crossing
6,Schmeler-Steuber,Portugal,Tapado,28592 Elmside Lane
7,Pacocha LLC,Russia,Dubovka,83498 Morningstar Parkway
8,"Doyle, O'Conner and Goldner",Madagascar,Ambatolampy,0 Riverside Drive
9,Maggio Group,Brazil,Campo Grande,2640 Village Place
10,"Orn, Zboncak and Gleichner",China,Heqiao,5969 Washington Place
11,"Murray, Braun and Keebler",Argentina,Ingenio La Esperanza,40 Cambridge Pass
12,Cartwright-Roob,Peru,Callahuanca,90885 Ruskin Lane
13,Schuppe-Nicolas,China,Baolin,0 Old Shore Alley
14,Effertz-Hilll,Indonesia,Krenggan,739 International Junction
15,Kozey Inc,Portugal,Boco,8999 Annamark Way
16,Abernathy Group,China,Dongyuan,13495 Jenna Road
17,"Smitham, VonRueden and Kessler",Portugal,Ribeira Quente,141 Birchwood Place
18,Feest and Sons,Canada,North Battleford,21822 Gale Terrace
19,"Huels, Leffler and Sipes",Italy,Salerno,1 Londonderry Road
20,"Paucek, Lowe and Vandervort",Indonesia,Rancabolang,602 New Castle Alley
21,"Senger, Satterfield and Pagac",Israel,Kafr Kannā,3395 Dixon Drive
22,Haley-Wunsch,Haiti,Petite Rivière de Nippes,5 Fieldstone Pass
23,Streich Inc,Indonesia,Ciomas,60 Drewry Hill
24,"Kohler, Gutkowski and Hettinger",Uganda,Bweyogerere,437 Moland Road
25,Pfannerstill-Stark,China,Fuhai,883 Jay Junction
26,Zieme-Gottlieb,Sri Lanka,Hikkaduwa,26 Crowley Center
27,Blanda-Senger,Bangladesh,Morrelgonj,92 Little Fleur Street
28,Nader-Greenfelder,China,Longtanping,3544 Dixon Hill
29,"MacGyver, Yundt and Bergnaum",Portugal,Outeiro,991 Village Green Alley
30,"Ortiz, Hoeger and O'Hara",Vietnam,Trà My,6354 Cordelia Junction
31,"Will, Cummerata and Breitenberg",Japan,Sano,59 Bonner Court
32,Champlin and Sons,China,Benzilan,6887 Northport Junction
33,Lesch-Gibson,Sweden,Farsta,34 Lerdahl Place
34,Cormier-Jacobs,China,Nanyulinxi,2 Stoughton Court
35,"Frami, Ratke and Turner",United States,Springfield,9 Lunder Avenue
36,"Konopelski, Lebsack and Dicki",Serbia,Ruma,21661 Park Meadow Lane
37,"Zemlak, Sipes and Stoltenberg",Portugal,Velas,1 Forster Parkway
38,"Bauch, Hermann and Rohan",South Africa,Swellendam,53215 Lukken Place
39,"Pfeffer, Hilll and Tromp",Poland,Czarna Woda,164 Starling Junction
40,Quigley-Hickle,Philippines,Nangka,69769 Graedel Lane
41,Stamm and Sons,Colombia,Quinchía,23644 Everett Road
42,Cummings and Sons,Canada,Normandin,222 Sullivan Drive
43,Medhurst LLC,United States,Ocala,5750 Old Gate Plaza
44,Grimes Inc,Indonesia,Talambung Laok,05 Merchant Lane
45,Nader-Ortiz,Ukraine,Shklo,49501 Scoville Crossing
46,Rice LLC,Mauritius,Arsenal,62637 Moulton Junction
47,"Bednar, Rowe and Feeney",Indonesia,Dampit Satu,4701 Schmedeman Parkway
48,Goodwin-Dietrich,China,Tancheng,5406 Merry Lane
49,Murphy-Weissnat,Philippines,Comagascas,23194 Saint Paul Street
50,Miller-Tremblay,China,Kesha,0170 Talisman Road
51,Dibbert Group,Greece,Triánta,85665 La Follette Circle
52,Simonis-Wilderman,Indonesia,Nambak Tengah,280 Mallard Way
53,"Streich, Franecki and Stoltenberg",Ukraine,Myronivka,476 Stone Corner Junction
54,Corwin-Cummings,Japan,Inashiki,135 Montana Junction
55,"Beier, Shanahan and Nikolaus",Niger,Alaghsas,38787 Clarendon Crossing
56,"Dach, Hessel and Ward",Russia,Chunoyar,4913 New Castle Trail
57,Wehner LLC,Botswana,Mopipi,95 Crownhardt Hill
58,"Stehr, Murazik and Mertz",Iran,Jīroft,79154 Lyons Park
59,"Langosh, Beier and Johnson",France,Reims,63584 Mcbride Trail
60,Von-Cassin,Russia,Nizhniy Kurkuzhin,66 Butternut Plaza
61,Davis Group,Ecuador,Yaguachi Nuevo,5362 Oneill Plaza
62,Farrell-Kunde,Dominican Republic,Padre Las Casas,33 Cherokee Point
63,Gerlach-Miller,Indonesia,Ponggok,6526 Eggendart Lane
64,"Homenick, Sanford and Medhurst",China,Huantuo,0 Orin Plaza
65,Schinner Group,Indonesia,Goge,840 Charing Cross Road
66,Huel-Streich,Indonesia,Sonder,3789 Continental Point
67,Nikolaus-Schmeler,Portugal,Lanhas,76 Tony Alley
68,"Graham, Schmidt and Hartmann",Yemen,Jawf al Maqbābah,0 Waubesa Junction
69,Krajcik LLC,China,Jinjing,3749 Fieldstone Drive
70,Rolfson-Will,Pakistan,Jīwani,43221 Gina Lane
71,Wilderman LLC,Portugal,Penha Longa,71 Ramsey Place
72,"Huels, Bogisich and Batz",China,Luqiao,66 Vera Drive
73,Mann LLC,Philippines,San Miguel,849 Scott Lane
74,Corkery Group,China,Hengxizhen,401 Glendale Trail
75,Kertzmann LLC,United States,Youngstown,00 Mifflin Place
76,"Kilback, D'Amore and Kuvalis",France,Épinal,917 Declaration Road
77,Green Inc,Argentina,Florencio Varela,9 Valley Edge Terrace
78,Leffler-Sauer,China,Zhaigang,50020 Fulton Trail
79,Heller-Nitzsche,Russia,Tsotsin-Yurt,58 Nelson Way
80,Sipes Group,Nigeria,Moriki,85 Mariners Cove Pass
81,"Collins, Rath and Pfeffer",China,Zhangcun,84040 Brentwood Junction
82,Legros and Sons,China,Taihe,12 Northfield Point
83,"Hegmann, Conn and Moen",Russia,Novominskaya,2 Northridge Avenue
84,Emard-Kuphal,France,Le Mans,177 Kipling Park
85,Cruickshank LLC,Indonesia,Petani,695 Cottonwood Crossing
86,"Brakus, Brakus and Turner",China,Wuchagou,384 Ridgeway Way
87,Stroman and Sons,Colombia,Cereté,5997 Arapahoe Point
88,Rau-Bailey,Morocco,Bhalil,0616 Spohn Plaza
89,"Yundt, Bashirian and Schumm",China,Aimin,6162 Alpine Place
90,Donnelly Inc,China,Zhuhe,571 Jana Road
91,Schamberger-Homenick,Tanzania,Madimba,1783 Fairfield Terrace
92,Armstrong-Doyle,Brazil,Orleans,28 Forest Run Alley
93,O'Connell-Gislason,Brazil,Pedregulho,0047 Hanson Street
94,"Farrell, Welch and Runolfsdottir",Philippines,Hinlayagan Ilaud,6006 Dahle Crossing
95,Schumm-Wolf,Nicaragua,Puerto Morazán,68 Lunder Drive
96,Marvin-Blick,China,Matou,03 Gerald Way
97,"Jacobson, Kuhn and Raynor",Czech Republic,Ořechov,25523 Utah Terrace
98,"Moore, Ratke and Barton",United States,Alexandria,0253 Main Place
99,Bins LLC,Philippines,Cabusao,159 Crownhardt Crossing
100,"Denesik, Reilly and Murray",Indonesia,Taekas,61 Red Cloud Crossing
